SKYSAT-C4               
1 41771U 16058B   26167.81519289  .00013927  00000+0  26271-3 0  9997
2 41771  96.9166 189.6030 0001345 132.1333 228.0034 15.48575993545419
SKYSAT-C5               
1 41772U 16058C   26167.64744596  .00006214  00000+0  18840-3 0  9994
2 41772  97.0465 208.3119 0001121 320.2312  39.8849 15.34463752543661
SKYSAT-C2               
1 41773U 16058D   26167.80513620  .00010139  00000+0  23915-3 0  9995
2 41773  97.0162 189.9144 0004710  71.8416 288.3344 15.42063195544993
SKYSAT-C3               
1 41774U 16058E   26167.82110015  .00019835  00000+0  32471-3 0  9998
2 41774  96.8998 198.6816 0001511  94.7515 265.3912 15.52525531546054
ALSAT-1B                
1 41785U 16059C   26167.83240088  .00000124  00000+0  27070-4 0  9997
2 41785  97.7743 176.6113 0008082 221.2682 138.7916 14.72273979520520
PATHFINDER 1            
1 41787U 16059E   26167.86382247  .00000463  00000+0  89130-4 0  9997
2 41787  97.8166 167.1547 0027773 204.6209 155.3672 14.67662875519664
SCATSAT 1               
1 41790U 16059H   26167.73985302  .00000892  00000+0  12402-3 0  9991
2 41790  98.1192 231.5014 0053362 248.9641 110.5858 14.79524691101527
GOKTURK 1A              
1 41875U 16073A   26167.83531413  .00000276  00000+0  63214-4 0  9996
2 41875  98.1258  62.5159 0001440  78.0351 282.1012 14.62774316508775
RESOURCESAT-2A          
1 41877U 16074A   26167.85965183 -.00000168  00000+0 -56637-4 0  9999
2 41877  98.7532 241.3664 0003359  84.1844 275.9716 14.21615375494254
SENTINEL-2B             
1 42063U 17013A   26167.85784144 -.00000026  00000+0  66723-5 0  9997
2 42063  98.5696 242.6367 0001179  86.5260 273.6057 14.30816516484590
CARTOSAT-2E             
1 42767U 17036C   26167.84696206  .00002263  00000+0  11059-3 0  9997
2 42767  97.4272 227.6550 0002585 321.9182  38.1870 15.19249136498090
FORMOSAT-5              
1 42920U 17049A   26167.84601295  .00000131  00000+0  44131-4 0  9996
2 42920  98.2254 243.1633 0012689  85.3055 274.9589 14.50898779466629
SENTINEL-5P             
1 42969U 17064A   26167.84945089  .00000030  00000+0  35462-4 0  9993
2 42969  98.7925 109.9831 0000961  85.3980 274.7306 14.19518904449516
SKYSAT-C11              
1 42987U 17068A   26167.86459473  .00023129  00000+0  31120-3 0  9996
2 42987  97.4356 316.6805 0000635  89.4237 270.7091 15.57879674483192
SKYSAT-C10              
1 42988U 17068B   26167.70551573  .00007479  00000+0  22529-3 0  9997
2 42988  97.4510 304.5474 0001109  96.8645 263.2724 15.34631556482284
SKYSAT-C9               
1 42989U 17068C   26167.84949047  .00011273  00000+0  27002-3 0  9998
2 42989  97.4430 305.6243 0009391 133.9872 226.2150 15.41554544482706
SKYSAT-C8               
1 42990U 17068D   26167.41718050  .00008787  00000+0  24534-3 0  9994
2 42990  97.4526 304.0531 0001465  95.7997 264.3415 15.36963915482194
SKYSAT-C7               
1 42991U 17068E   26167.86652694  .00008953  00000+0  25009-3 0  9998
2 42991  97.4538 305.4979 0007211 107.4770 252.7262 15.36921502482326
SKYSAT-C6               
1 42992U 17068F   26167.62498520  .00007513  00000+0  22931-3 0  9991
2 42992  97.4572 305.2249 0004392 139.0315 221.1258 15.34202257482238
CARTOSAT-2F             
1 43111U 18004A   26167.87913010  .00002682  00000+0  13066-3 0  9990
2 43111  97.4787 227.5167 0000576 206.8908 153.2296 15.19211805467283
GAOFEN-1 02             
1 43259U 18031A   26167.89187051  .00000641  00000+0  99568-4 0  9998
2 43259  98.0530 230.4198 0003878  34.6397 325.5064 14.76456633442656
GAOFEN-1 03             
1 43260U 18031B   26167.87002212  .00000613  00000+0  95448-4 0  9995
2 43260  98.0517 230.2566 0003746  79.7174 280.4458 14.76468807442648
GAOFEN-1 04             
1 43262U 18031D   26167.16799045  .00000478  00000+0  76072-4 0  9997
2 43262  98.0533 229.7469 0002239  82.9600 277.1864 14.76478078442532
SENTINEL-3B             
1 43437U 18039A   26167.69879825  .00000078  00000+0  50330-4 0  9997
2 43437  98.6250 235.2381 0000729  87.9602 272.1662 14.26734561424057
GAOFEN-5 01             
1 43461U 18043A   26167.85621273  .00000281  00000+0  67817-4 0  9993
2 43461  98.4568 139.4354 0003044  84.2261 275.9285 14.60605408431643
GAOFEN-6                
1 43484U 18048A   26166.85139237  .00000304  00000+0  50615-4 0  9990
2 43484  97.8709 229.6314 0011693 171.3993 188.7420 14.76597001433195
GAOFEN-11 01            
1 43585U 18063A   26167.85165176  .00009296  00000+0  13871-3 0  9992
2 43585  97.1291 234.7313 0003165 359.4688   0.6563 15.55274575440292
ICESAT-2                
1 43613U 18070A   26167.82766154  .00008292  00000+0  30095-3 0  9994
2 43613  92.0084 290.8815 0006006 107.4829 252.7077 15.28277721432403
HYSIS                   
1 43719U 18096A   26167.39938139  .00000529  00000+0  79264-4 0  9992
2 43719  97.9845 234.1538 0001924 106.8178 253.3244 14.78693317407307
KAZSTSAT                
1 43783U 18099AB  26167.83064424  .00001387  00000+0  11640-3 0  9998
2 43783  97.4268 199.7750 0008497  70.7687 289.4456 14.99865191411258
