OBJECT_NAME,OBJECT_ID,EPOCH,MEAN_MOTION,ECCENTRICITY,INCLINATION,RA_OF_ASC_NODE,ARG_OF_PERICENTER,MEAN_ANOMALY,EPHEMERIS_TYPE,CLASSIFICATION_TYPE,NORAD_CAT_ID,ELEMENT_SET_NO,REV_AT_EPOCH,BSTAR,MEAN_MOTION_DOT,MEAN_MOTION_DDOT
SKYSAT-C4,2016-058B,2026-06-16T19:33:52.665696,15.48575993,.0001345,96.9166,189.6030,132.1333,228.0034,0,U,41771,999,54541,.26271E-3,.13927E-3,0
SKYSAT-C5,2016-058C,2026-06-16T15:32:19.330944,15.34463752,.0001121,97.0465,208.3119,320.2312,39.8849,0,U,41772,999,54366,.1884E-3,.6214E-4,0
SKYSAT-C2,2016-058D,2026-06-16T19:19:23.767680,15.42063195,.000471,97.0162,189.9144,71.8416,288.3344,0,U,41773,999,54499,.23915E-3,.10139E-3,0
SKYSAT-C3,2016-058E,2026-06-16T19:42:23.052960,15.52525531,.0001511,96.8998,198.6816,94.7515,265.3912,0,U,41774,999,54605,.32471E-3,.19835E-3,0
ALSAT-1B,2016-059C,2026-06-16T19:58:39.436032,14.72273979,.0008082,97.7743,176.6113,221.2682,138.7916,0,U,41785,999,52052,.2707E-4,.124E-5,0
PATHFINDER 1,2016-059E,2026-06-16T20:43:54.261408,14.67662875,.0027773,97.8166,167.1547,204.6209,155.3672,0,U,41787,999,51966,.8913E-4,.463E-5,0
SCATSAT 1,2016-059H,2026-06-16T17:45:23.300928,14.79524691,.0053362,98.1192,231.5014,248.9641,110.5858,0,U,41790,999,10152,.12402E-3,.892E-5,0
GOKTURK 1A,2016-073A,2026-06-16T20:02:51.140832,14.62774316,.000144,98.1258,62.5159,78.0351,282.1012,0,U,41875,999,50877,.63214E-4,.276E-5,0
RESOURCESAT-2A,2016-074A,2026-06-16T20:37:53.918112,14.21615375,.0003359,98.7532,241.3664,84.1844,275.9716,0,U,41877,999,49425,-.56637E-4,-.168E-5,0
SENTINEL-2B,2017-013A,2026-06-16T20:35:17.500416,14.30816516,.0001179,98.5696,242.6367,86.5260,273.6057,0,U,42063,999,48459,.66723E-5,-.26E-6,0
CARTOSAT-2E,2017-036C,2026-06-16T20:19:37.521984,15.19249136,.0002585,97.4272,227.6550,321.9182,38.1870,0,U,42767,999,49809,.11059E-3,.2263E-4,0
FORMOSAT-5,2017-049A,2026-06-16T20:18:15.518880,14.50898779,.0012689,98.2254,243.1633,85.3055,274.9589,0,U,42920,999,46662,.44131E-4,.131E-5,0
SENTINEL-5P,2017-064A,2026-06-16T20:23:12.556896,14.19518904,.0000961,98.7925,109.9831,85.3980,274.7306,0,U,42969,999,44951,.35462E-4,.3E-6,0
SKYSAT-C11,2017-068A,2026-06-16T20:45:00.984672,15.57879674,.0000635,97.4356,316.6805,89.4237,270.7091,0,U,42987,999,48319,.3112E-3,.23129E-3,0
SKYSAT-C10,2017-068B,2026-06-16T16:55:56.559072,15.34631556,.0001109,97.4510,304.5474,96.8645,263.2724,0,U,42988,999,48228,.22529E-3,.7479E-4,0
SKYSAT-C9,2017-068C,2026-06-16T20:23:15.976608,15.41554544,.0009391,97.4430,305.6243,133.9872,226.2150,0,U,42989,999,48270,.27002E-3,.11273E-3,0
SKYSAT-C8,2017-068D,2026-06-16T10:00:44.395200,15.36963915,.00014659,97.4526,304.0531,95.7997,264.3415,0,U,42990,999,48219,.24534488E-3,.8787E-4,0
SKYSAT-C7,2017-068E,2026-06-16T20:47:47.927616,15.36921502,.0007211,97.4538,305.4979,107.4770,252.7262,0,U,42991,999,48232,.25009E-3,.8953E-4,0
SKYSAT-C6,2017-068F,2026-06-16T14:59:58.721280,15.34202257,.0004392,97.4572,305.2249,139.0315,221.1258,0,U,42992,999,48223,.22931E-3,.7513E-4,0
CARTOSAT-2F,2018-004A,2026-06-16T21:05:56.840640,15.19211805,.0000576,97.4787,227.5167,206.8908,153.2296,0,U,43111,999,46728,.13066E-3,.2682E-4,0
GAOFEN-1 02,2018-031A,2026-06-16T21:24:17.612064,14.76456633,.0003878,98.0530,230.4198,34.6397,325.5064,0,U,43259,999,44265,.99568E-4,.641E-5,0
GAOFEN-1 03,2018-031B,2026-06-16T20:52:49.911168,14.76468807,.0003746,98.0517,230.2566,79.7174,280.4458,0,U,43260,999,44264,.95448E-4,.613E-5,0
GAOFEN-1 04,2018-031D,2026-06-16T04:01:54.374880,14.76478078,.00022392,98.0533,229.7469,82.9600,277.1864,0,U,43262,999,44253,.76072167E-4,.478E-5,0
SENTINEL-3B,2018-039A,2026-06-16T16:46:16.168800,14.26734561,.0000729,98.6250,235.2381,87.9602,272.1662,0,U,43437,999,42405,.5033E-4,.78E-6,0
GAOFEN-5 01,2018-043A,2026-06-16T20:32:56.779872,14.60605408,.0003044,98.4568,139.4354,84.2261,275.9285,0,U,43461,999,43164,.67817E-4,.281E-5,0
GAOFEN-6,2018-048A,2026-06-15T20:26:00.300768,14.76597001,.00116931,97.8709,229.6314,171.3993,188.7420,0,U,43484,999,43319,.5061483E-4,.304E-5,0
GAOFEN-11 01,2018-063A,2026-06-16T20:26:22.712064,15.55274575,.0003165,97.1291,234.7313,359.4688,0.6563,0,U,43585,999,44029,.13871E-3,.9296E-4,0
ICESAT-2,2018-070A,2026-06-16T19:51:49.957056,15.28277721,.0006006,92.0084,290.8815,107.4829,252.7077,0,U,43613,999,43240,.30095E-3,.8292E-4,0
HYSIS,2018-096A,2026-06-16T09:35:06.552096,14.78693317,.0001924,97.9845,234.1538,106.8178,253.3244,0,U,43719,999,40730,.79264296E-4,.529E-5,0
KAZSTSAT,2018-099AB,2026-06-16T19:56:07.662336,14.99865191,.0008497,97.4268,199.7750,70.7687,289.4456,0,U,43783,999,41125,.1164E-3,.1387E-4,0
